SCS-01 E                
1 63986U 25100E   26068.81778690  .00008140  00000+0  39416-3 0  9996
2 63986  97.4267 144.0575 0004186  16.3517 343.7852 15.18808974 45526
FLOCK 4H-20             
1 66723U 25276BK  26068.75326618  .00008967  00000+0  42185-3 0  9998
2 66723  97.4281 144.1685 0001417 295.7950  64.3138 15.19789930 14581
