[{"OBJECT_NAME":"SCS-01 E","OBJECT_ID":"2025-100E","EPOCH":"2026-03-09T19:37:36.788160","MEAN_MOTION":15.18808974,"ECCENTRICITY":0.00041864,"INCLINATION":97.4267,"RA_OF_ASC_NODE":144.0575,"ARG_OF_PERICENTER":16.3517,"MEAN_ANOMALY":343.7852,"EPHEMERIS_TYPE":0,"CLASSIFICATION_TYPE":"U","NORAD_CAT_ID":63986,"ELEMENT_SET_NO":999,"REV_AT_EPOCH":4552,"BSTAR":0.00039415521,"MEAN_MOTION_DOT":8.14e-5,"MEAN_MOTION_DDOT":0},{"OBJECT_NAME":"FLOCK 4H-20","OBJECT_ID":"2025-276BK","EPOCH":"2026-03-09T18:04:42.197952","MEAN_MOTION":15.1978993,"ECCENTRICITY":0.00014172,"INCLINATION":97.4281,"RA_OF_ASC_NODE":144.1685,"ARG_OF_PERICENTER":295.795,"MEAN_ANOMALY":64.3138,"EPHEMERIS_TYPE":0,"CLASSIFICATION_TYPE":"U","NORAD_CAT_ID":66723,"ELEMENT_SET_NO":999,"REV_AT_EPOCH":1458,"BSTAR":0.0004218455,"MEAN_MOTION_DOT":8.967e-5,"MEAN_MOTION_DDOT":0}]
